0 GORIZONT 1
1 11158U 78118A   13280.67550330 -.00000087  00000-0  00000+0 0  8404
2 11158 019.3155 294.0542 3302380 139.0815 250.9984 01.00239559 76457
0 GORIZONT 1
1 11158U 78118A   13280.67553434 -.00000087  00000-0  00000+0 0  8413
2 11158 019.3132 294.0554 3303698 139.1272 250.9418 01.00238414 76457
0 GORIZONT 1
1 11158U 78118A   13287.65809186 -.00000130  00000-0  00000+0 0  8437
2 11158 019.2986 293.9351 3303970 139.3793 250.5524 01.00240394 76521
0 GORIZONT 1
1 11158U 78118A   13293.64316025 -.00000150  00000-0  00000+0 0  8441
2 11158 019.2874 293.8312 3304712 139.5917 250.2867 01.00241113 76581
0 GORIZONT 1
1 11158U 78118A   13294.64065331 -.00000143  00000-0  00000+0 0  8456
2 11158 019.2856 293.8142 3305000 139.6300 250.2429 01.00240925 76595
